*******************************************************************************
JPL/HORIZONS               434 Hungaria (A898 RB)          2023-Sep-04 11:06:19
Rec #:     434 (+COV) Soln.date: 2023-Aug-23_17:53:49   # obs: 8923 (1898-2023)
 
IAU76/J2000 helio. ecliptic osc. elements (au, days, deg., period=Julian yrs):
 
  EPOCH=  2457115.5 ! 2015-Apr-03.00 (TDB)         Residual RMS= .26199
   EC= .07392310914871784  QR= 1.800539562256124   TP= 2456992.6342840255
   OM= 175.3317761208536   W=  123.9359172577123   IN= 22.50990285502301
   A= 1.944265730031342    MA= 44.66849886044829   ADIST= 2.087991897806561
   PER= 2.71108            N= .363555435           ANGMOM= .023920451
   DAN= 2.01687            DDN= 1.857              L= 301.4004296
   B= 18.5196918           MOID= .83515799         TP= 2014-Dec-01.1342840255
 
Asteroid physical parameters (km, seconds, rotational period in hours):
   GM= n.a.                RAD= 4.467              ROTPER= 26.521
   H= 11.27                G= .150                 B-V= .717
                           ALBEDO= .726            STYP= Xe

ASTEROID comments: 
1: soln ref.= JPL#95, OCC=0
2: source=ORB
*******************************************************************************


*******************************************************************************
Ephemeris / API_USER Mon Sep  4 11:06:19 2023 Pasadena, USA      / Horizons
*******************************************************************************
Target body name: 434 Hungaria (A898 RB)          {source: JPL#95}
Center body name: Solar System Barycenter (0)     {source: DE441}
Center-site name: BODY CENTER
*******************************************************************************
Start time      : A.D. 2023-Aug-12 00:00:00.0000 TDB
Stop  time      : A.D. 2023-Aug-13 00:00:00.0000 TDB
Step-size       : 2880 minutes
*******************************************************************************
Center geodetic : 0.0, 0.0, 0.0                   {E-lon(deg),Lat(deg),Alt(km)}
Center cylindric: 0.0, 0.0, 0.0                   {E-lon(deg),Dxy(km),Dz(km)}
Center radii    : (undefined)
Small perturbers: Yes                             {source: SB441-N16}
Output units    : KM-S
Calendar mode   : Mixed Julian/Gregorian
Output type     : GEOMETRIC cartesian states
Output format   : 2 (position and velocity)
Reference frame : Ecliptic of J2000.0
*******************************************************************************
Initial IAU76/J2000 heliocentric ecliptic osculating elements (au, days, deg.):
  EPOCH=  2457115.5 ! 2015-Apr-03.00 (TDB)         Residual RMS= .26199        
   EC= .07392310914871784  QR= 1.800539562256124   TP= 2456992.6342840255      
   OM= 175.3317761208536   W=  123.9359172577123   IN= 22.50990285502301       
  Equivalent ICRF heliocentric cartesian coordinates (au, au/d):
   X= 1.822300225161771E+00  Y=-2.991591935927898E-01  Z=-6.201968045114999E-02
  VX= 2.803406200495841E-03 VY= 1.265793374687407E-02 VZ= 1.327991937190009E-04
Asteroid physical parameters (km, seconds, rotational period in hours):        
   GM= n.a.                RAD= 4.467              ROTPER= 26.521              
   H= 11.27                G= .150                 B-V= .717                   
                           ALBEDO= .726            STYP= Xe                    
*******************************************************************************
JDTDB
   X     Y     Z
   VX    VY    VZ
*******************************************************************************
$$SOE
2460168.500000000 = A.D. 2023-Aug-12 00:00:00.0000 TDB 
 X = 2.633950495122047E+08 Y = 9.795354520230234E+07 Z =-4.953029813056205E+07
 VX=-6.820651332098628E+00 VY= 1.908087426950202E+01 VZ=-7.654586850208914E+00
$$EOE
*******************************************************************************
 
TIME

  Barycentric Dynamical Time ("TDB" or T_eph) output was requested. This
continuous coordinate time is equivalent to the relativistic proper time
of a clock at rest in a reference frame co-moving with the solar system
barycenter but outside the system's gravity well. It is the independent
variable in the solar system relativistic equations of motion.

  TDB runs at a uniform rate of one SI second per second and is independent
of irregularities in Earth's rotation.
 
CALENDAR SYSTEM

  Mixed calendar mode was active such that calendar dates after AD 1582-Oct-15
(if any) are in the modern Gregorian system. Dates prior to 1582-Oct-5 (if any)
are in the Julian calendar system, which is automatically extended for dates
prior to its adoption on 45-Jan-1 BC.  The Julian calendar is useful for
matching historical dates. The Gregorian calendar more accurately corresponds
to the Earth's orbital motion and seasons. A "Gregorian-only" calendar mode is
available if such physical events are the primary interest.

REFERENCE FRAME AND COORDINATES

  Ecliptic at the standard reference epoch

    Reference epoch: J2000.0
    X-Y plane: adopted Earth orbital plane at the reference epoch
               Note: IAU76 obliquity of 84381.448 arcseconds wrt ICRF X-Y plane
    X-axis   : ICRF
    Z-axis   : perpendicular to the X-Y plane in the directional (+ or -) sense
               of Earth's north pole at the reference epoch.

  Symbol meaning:

    JDTDB    Julian Day Number, Barycentric Dynamical Time
      X      X-component of position vector (km)
      Y      Y-component of position vector (km)
      Z      Z-component of position vector (km)
      VX     X-component of velocity vector (km/sec)                           
      VY     Y-component of velocity vector (km/sec)                           
      VZ     Z-component of velocity vector (km/sec)                           

ABERRATIONS AND CORRECTIONS

 Geometric state vectors have NO corrections or aberrations applied.

Computations by ...

    Solar System Dynamics Group, Horizons On-Line Ephemeris System
    4800 Oak Grove Drive, Jet Propulsion Laboratory
    Pasadena, CA  91109   USA

    General site: https://ssd.jpl.nasa.gov/
    Mailing list: https://ssd.jpl.nasa.gov/email_list.html
    System news : https://ssd.jpl.nasa.gov/horizons/news.html
    User Guide  : https://ssd.jpl.nasa.gov/horizons/manual.html
    Connect     : browser        https://ssd.jpl.nasa.gov/horizons/app.html#/x
                  API            https://ssd-api.jpl.nasa.gov/doc/horizons.html
                  command-line   telnet ssd.jpl.nasa.gov 6775
                  e-mail/batch   https://ssd.jpl.nasa.gov/ftp/ssd/hrzn_batch.txt
                  scripts        https://ssd.jpl.nasa.gov/ftp/ssd/SCRIPTS
    Author      : Jon.D.Giorgini@jpl.nasa.gov
*******************************************************************************
